{
  "norad_id": 53602,
  "name": "STARLINK-4648",
  "history": [
    {
      "epoch": "2026-03-28T21:12:42.283008Z",
      "apogee_km": 540.6560617261284,
      "perigee_km": 538.9113621225815,
      "latitude_deg": 4.017127344227271e-05,
      "longitude_deg": 8.418579324956854,
      "height_km": 540.5727104651008,
      "semi_major_axis_km": 6917.920711924355,
      "eccentricity": 0.0001261,
      "inclination_deg": 53.2166,
      "raan_deg": 152.8926,
      "arg_perigee_deg": 82.9702,
      "mean_anomaly_deg": 277.1434,
      "mean_motion_rev_day": 15.08826808
    },
    {
      "epoch": "2026-03-28T21:12:42.283872Z",
      "apogee_km": 540.655992546921,
      "perigee_km": 538.911431301789,
      "latitude_deg": 4.108755081362585e-05,
      "longitude_deg": 8.418576396391337,
      "height_km": 540.5727189315631,
      "semi_major_axis_km": 6917.920711924355,
      "eccentricity": 0.00012609,
      "inclination_deg": 53.2166,
      "raan_deg": 152.8926,
      "arg_perigee_deg": 82.9702,
      "mean_anomaly_deg": 277.1434,
      "mean_motion_rev_day": 15.08826808
    },
    {
      "epoch": "2026-03-29T08:20:24.658368Z",
      "apogee_km": 540.7126983167782,
      "perigee_km": 538.8722523591587,
      "latitude_deg": 3.674508910385519e-05,
      "longitude_deg": -161.04621578428615,
      "height_km": 540.5839930691869,
      "semi_major_axis_km": 6917.929475337968,
      "eccentricity": 0.00013302,
      "inclination_deg": 53.2172,
      "raan_deg": 150.8114,
      "arg_perigee_deg": 83.4976,
      "mean_anomaly_deg": 276.6168,
      "mean_motion_rev_day": 15.08823941
    },
    {
      "epoch": "2026-03-30T12:57:20.930112Z",
      "apogee_km": 540.8053544404147,
      "perigee_km": 538.7815830610871,
      "latitude_deg": -2.7087190914252174e-05,
      "longitude_deg": 123.19196990231664,
      "height_km": 540.6208390552117,
      "semi_major_axis_km": 6917.930468750751,
      "eccentricity": 0.00014627,
      "inclination_deg": 53.2172,
      "raan_deg": 145.4593,
      "arg_perigee_deg": 86.1368,
      "mean_anomaly_deg": 273.9791,
      "mean_motion_rev_day": 15.08823616
    },
    {
      "epoch": "2026-03-30T20:54:16.620480Z",
      "apogee_km": 540.7873287309603,
      "perigee_km": 538.7671594134063,
      "latitude_deg": 4.458827920864e-07,
      "longitude_deg": 2.1470018221318523,
      "height_km": 540.6009582436756,
      "semi_major_axis_km": 6917.9142440721835,
      "eccentricity": 0.00014601,
      "inclination_deg": 53.217,
      "raan_deg": 143.9728,
      "arg_perigee_deg": 85.9231,
      "mean_anomaly_deg": 274.1928,
      "mean_motion_rev_day": 15.08828924
    },
    {
      "epoch": "2026-03-31T20:45:03.580128Z",
      "apogee_km": 540.7392170316934,
      "perigee_km": 538.7441008264586,
      "latitude_deg": 7.135507204928638e-06,
      "longitude_deg": -0.9885929730544664,
      "height_km": 540.5651679764758,
      "semi_major_axis_km": 6917.878658929076,
      "eccentricity": 0.0001442,
      "inclination_deg": 53.2165,
      "raan_deg": 139.5122,
      "arg_perigee_deg": 85.8614,
      "mean_anomaly_deg": 274.2543,
      "mean_motion_rev_day": 15.08840566
    },
    {
      "epoch": "2026-04-01T09:28:08.954976Z",
      "apogee_km": 540.7744365547596,
      "perigee_km": 538.7142914845554,
      "latitude_deg": -2.121374111261772e-05,
      "longitude_deg": 165.33817516656532,
      "height_km": 540.5632877663652,
      "semi_major_axis_km": 6917.881364019658,
      "eccentricity": 0.0001489,
      "inclination_deg": 53.2172,
      "raan_deg": 137.1337,
      "arg_perigee_deg": 85.7358,
      "mean_anomaly_deg": 274.3804,
      "mean_motion_rev_day": 15.08839681
    },
    {
      "epoch": "2026-04-02T09:18:55.905984Z",
      "apogee_km": 540.7193686727423,
      "perigee_km": 538.7538624210929,
      "latitude_deg": 2.7174108625882067e-05,
      "longitude_deg": 162.20064712856268,
      "height_km": 540.8290839499272,
      "semi_major_axis_km": 6917.873615546918,
      "eccentricity": 0.00014206,
      "inclination_deg": 53.2167,
      "raan_deg": 132.6711,
      "arg_perigee_deg": 101.557,
      "mean_anomaly_deg": 258.5582,
      "mean_motion_rev_day": 15.08842216
    },
    {
      "epoch": "2026-04-03T09:09:42.575328Z",
      "apogee_km": 540.6730156131916,
      "perigee_km": 538.7800114413503,
      "latitude_deg": 9.363806007193486e-06,
      "longitude_deg": 159.06774606406452,
      "height_km": 540.6401823241445,
      "semi_major_axis_km": 6917.863513527271,
      "eccentricity": 0.00013682,
      "inclination_deg": 53.2166,
      "raan_deg": 128.212,
      "arg_perigee_deg": 91.0932,
      "mean_anomaly_deg": 269.0217,
      "mean_motion_rev_day": 15.08845521
    },
    {
      "epoch": "2026-04-04T12:11:16.806624Z",
      "apogee_km": 540.6845666068539,
      "perigee_km": 538.8481399826878,
      "latitude_deg": 1.4845730995592028e-05,
      "longitude_deg": 107.5090936285104,
      "height_km": 540.5971308716221,
      "semi_major_axis_km": 6917.903353294771,
      "eccentricity": 0.00013273,
      "inclination_deg": 53.2164,
      "raan_deg": 123.1559,
      "arg_perigee_deg": 85.9489,
      "mean_anomaly_deg": 274.1655,
      "mean_motion_rev_day": 15.08832487
    },
    {
      "epoch": "2026-04-05T08:51:17.531424Z",
      "apogee_km": 540.6805070539776,
      "perigee_km": 538.8269274152008,
      "latitude_deg": -1.8331200367993757e-05,
      "longitude_deg": 152.7917897219493,
      "height_km": 540.5829827684599,
      "semi_major_axis_km": 6917.890717234589,
      "eccentricity": 0.00013397,
      "inclination_deg": 53.2167,
      "raan_deg": 119.2904,
      "arg_perigee_deg": 85.8914,
      "mean_anomaly_deg": 274.2231,
      "mean_motion_rev_day": 15.08836621
    },
    {
      "epoch": "2026-04-05T18:23:36.369024Z",
      "apogee_km": 540.6866799436029,
      "perigee_km": 538.8216164900432,
      "latitude_deg": -1.2418233132828249e-05,
      "longitude_deg": 7.537268420654921,
      "height_km": 540.5813238523464,
      "semi_major_axis_km": 6917.891148216822,
      "eccentricity": 0.0001348,
      "inclination_deg": 53.2166,
      "raan_deg": 117.5061,
      "arg_perigee_deg": 85.7894,
      "mean_anomaly_deg": 274.3252,
      "mean_motion_rev_day": 15.0883648
    },
    {
      "epoch": "2026-04-06T05:31:18.331392Z",
      "apogee_km": 540.6668865383936,
      "perigee_km": 538.8586858922727,
      "latitude_deg": -4.241605185104135e-05,
      "longitude_deg": -161.92602205433053,
      "height_km": 540.7218255816985,
      "semi_major_axis_km": 6917.899786215333,
      "eccentricity": 0.00013069,
      "inclination_deg": 53.2166,
      "raan_deg": 115.4247,
      "arg_perigee_deg": 94.0172,
      "mean_anomaly_deg": 266.0969,
      "mean_motion_rev_day": 15.08833654
    },
    {
      "epoch": "2026-04-07T10:08:14.451936Z",
      "apogee_km": 540.649240002107,
      "perigee_km": 538.8255499541028,
      "latitude_deg": -4.425906541442755e-06,
      "longitude_deg": 122.3122669610923,
      "height_km": 540.6689080410744,
      "semi_major_axis_km": 6917.874394978105,
      "eccentricity": 0.00013181,
      "inclination_deg": 53.2164,
      "raan_deg": 110.072,
      "arg_perigee_deg": 92.2534,
      "mean_anomaly_deg": 267.8609,
      "mean_motion_rev_day": 15.08841961
    },
    {
      "epoch": "2026-04-07T18:05:10.054176Z",
      "apogee_km": 540.6479721437263,
      "perigee_km": 538.8202705934609,
      "latitude_deg": 4.683177894259467e-05,
      "longitude_deg": 1.2671833734932014,
      "height_km": 540.6600103672537,
      "semi_major_axis_km": 6917.871121368593,
      "eccentricity": 0.0001321,
      "inclination_deg": 53.2163,
      "raan_deg": 108.585,
      "arg_perigee_deg": 91.897,
      "mean_anomaly_deg": 268.2174,
      "mean_motion_rev_day": 15.08843032
    },
    {
      "epoch": "2026-04-08T06:48:15.499872Z",
      "apogee_km": 540.7185022930053,
      "perigee_km": 538.7774821218909,
      "latitude_deg": 1.5289978737206595e-05,
      "longitude_deg": 167.5932508559448,
      "height_km": 540.6733271742062,
      "semi_major_axis_km": 6917.884992207448,
      "eccentricity": 0.00014029,
      "inclination_deg": 53.2164,
      "raan_deg": 106.2061,
      "arg_perigee_deg": 91.7594,
      "mean_anomaly_deg": 268.3559,
      "mean_motion_rev_day": 15.08838494
    }
  ]
}